{
"type": "FeatureCollection",
"name": "GSP",
"crs": { "type": "name", "properties": { "name": "urn:ogc:def:crs:OGC:1.3:CRS84" } },
"xy_coordinate_resolution": 1e-15,
"features": [
{ "type": "Feature", "properties": { "Owner Type": "SSEN", "Owner Name": "SHET", "Type": "Grid/Bulk Supply pt", "Class": "Transmission", "Number": "", "Status": "Existing", "Data Confidence": "Surveyed", "Operating Area": "", "Locality": "", "Extent": "5649.33 m²" }, "geometry": { "type": "Point", "coordinates": [ -1.805920448027932, 57.508629928458845 ] } },
{ "type": "Feature", "properties": { "Owner Type": "SSEN", "Owner Name": "SHET", "Type": "Grid/Bulk Supply pt", "Class": "Transmission", "Number": "", "Status": "Existing", "Data Confidence": "Surveyed", "Operating Area": "", "Locality": "", "Extent": "2434.41 m²" }, "geometry": { "type": "Point", "coordinates": [ -1.846964511588, 57.575022518711947 ] } },
{ "type": "Feature", "properties": { "Owner Type": "SSEN", "Owner Name": "SHET", "Type": "Grid/Bulk Supply pt", "Class": "Transmission", "Number": "", "Status": "Existing", "Data Confidence": "Surveyed", "Operating Area": "", "Locality": "", "Extent": "855.15 m²" }, "geometry": { "type": "Point", "coordinates": [ -1.84873831637355, 57.574053338786221 ] } },
{ "type": "Feature", "properties": { "Owner Type": "SSEN", "Owner Name": "SHET", "Type": "Grid/Bulk Supply pt", "Class": "Transmission", "Number": "", "Status": "Existing", "Data Confidence": "Surveyed", "Operating Area": "", "Locality": "", "Extent": "1163.94 m²" }, "geometry": { "type": "Point", "coordinates": [ -1.84948741690274, 57.583351528303297 ] } },
{ "type": "Feature", "properties": { "Owner Type": "SSEN", "Owner Name": "SHET", "Type": "Grid/Bulk Supply pt", "Class": "Transmission", "Number": "", "Status": "Existing", "Data Confidence": "Surveyed", "Operating Area": "", "Locality": "", "Extent": "3911.28 m²" }, "geometry": { "type": "Point", "coordinates": [ -2.024391108101419, 57.686219554573519 ] } },
{ "type": "Feature", "properties": { "Owner Type": "SSEN", "Owner Name": "SHET", "Type": "Grid/Bulk Supply pt", "Class": "Transmission", "Number": "", "Status": "Existing", "Data Confidence": "Surveyed", "Operating Area": "", "Locality": "", "Extent": "2310.85 m²" }, "geometry": { "type": "Point", "coordinates": [ -2.069865935127102, 57.586036358003561 ] } },
{ "type": "Feature", "properties": { "Owner Type": "SSEN", "Owner Name": "SHET", "Type": "Grid/Bulk Supply pt", "Class": "Transmission", "Number": "", "Status": "Existing", "Data Confidence": "Surveyed", "Operating Area": "", "Locality": "", "Extent": "8683.84 m²" }, "geometry": { "type": "Point", "coordinates": [ -2.138569523180624, 57.174078314124067 ] } },
{ "type": "Feature", "properties": { "Owner Type": "SSEN", "Owner Name": "SHET", "Type": "Grid/Bulk Supply pt", "Class": "Transmission", "Number": "", "Status": "Existing", "Data Confidence": "Surveyed", "Operating Area": "", "Locality": "", "Extent": "25 m²" }, "geometry": { "type": "Point", "coordinates": [ -2.146437376862045, 57.15426105565281 ] } },
{ "type": "Feature", "properties": { "Owner Type": "SSEN", "Owner Name": "SHET", "Type": "Grid/Bulk Supply pt", "Class": "Transmission", "Number": "", "Status": "Existing", "Data Confidence": "Surveyed", "Operating Area": "", "Locality": "", "Extent": "8916.52 m²" }, "geometry": { "type": "Point", "coordinates": [ -2.153909864806312, 57.131115352061919 ] } },
{ "type": "Feature", "properties": { "Owner Type": "SSEN", "Owner Name": "SHET", "Type": "Grid/Bulk Supply pt", "Class": "Transmission", "Number": "", "Status": "Existing", "Data Confidence": "Surveyed", "Operating Area": "", "Locality": "", "Extent": "98.35 m²" }, "geometry": { "type": "Point", "coordinates": [ -2.498414231913657, 57.664084121795781 ] } },
{ "type": "Feature", "properties": { "Owner Type": "SSEN", "Owner Name": "SHET", "Type": "Grid/Bulk Supply pt", "Class": "Transmission", "Number": "", "Status": "Existing", "Data Confidence": "Surveyed", "Operating Area": "", "Locality": "", "Extent": "24.38 m²" }, "geometry": { "type": "Point", "coordinates": [ -3.321342450249915, 57.664674955981241 ] } },
{ "type": "Feature", "properties": { "Owner Type": "SSEN", "Owner Name": "SHET", "Type": "Grid/Bulk Supply pt", "Class": "Transmission", "Number": "", "Status": "Existing", "Data Confidence": "Assumed", "Operating Area": "", "Locality": "", "Extent": "2270.82 m²" }, "geometry": { "type": "Point", "coordinates": [ -3.420443918995578, 57.556795222248681 ] } },
{ "type": "Feature", "properties": { "Owner Type": "SSEN", "Owner Name": "SHET", "Type": "Grid/Bulk Supply pt", "Class": "Transmission", "Number": "", "Status": "Existing", "Data Confidence": "Surveyed", "Operating Area": "", "Locality": "", "Extent": "4843.99 m²" }, "geometry": { "type": "Point", "coordinates": [ -3.732238042398325, 57.253425598742211 ] } }
]
}
